NORAD_CAT_ID,OBJECT_NAME,OBJECT_TYPE,EPOCH,MEAN_MOTION,ECCENTRICITY,INCLINATION,RA_OF_ASC_NODE,ARG_OF_PERICENTER,MEAN_ANOMALY,BSTAR,MEAN_MOTION_DOT,MEAN_MOTION_DDOT,TLE_LINE0,TLE_LINE1,TLE_LINE2,SEMIMAJOR_AXIS,PERIOD,APOGEE,PERIGEE,DECAYED
53390.0,STARLINK-4517,PAYLOAD,2022-11-27 15:15:12,15.0883165,0.0002677,53.2192,102.4078,51.412,308.7111,5.1142e-06,-2.07e-06,0.0,0 STARLINK-4517,1 53390U 22097C   22331.63556132 -.00000207  00000-0  51142-5 0  9990,2 53390  53.2192 102.4078 0002677  51.4120 308.7111 15.08831650 17153,6917.906,95.438,541.623,537.919,0.0
53390.0,STARLINK-4517,PAYLOAD,2022-11-28 15:05:59,15.08833414,0.0002496,53.2197,97.9464,54.6709,305.4517,0.00018094,2.592e-05,0.0,0 STARLINK-4517,1 53390U 22097C   22332.62915839  .00002592  00000-0  18094-3 0  9998,2 53390  53.2197  97.9464 0002496  54.6709 305.4517 15.08833414 17303,6917.901,95.438,541.492,538.039,0.0
53390.0,STARLINK-4517,PAYLOAD,2022-11-29 08:35:14,15.08830091,0.0002544,53.2192,94.6776,47.3445,312.7761,4.659600000000001e-05,4.53e-06,0.0,0 STARLINK-4517,1 53390U 22097C   22333.35780278  .00000453  00000-0  46596-4 0  9999,2 53390  53.2192  94.6776 0002544  47.3445 312.7761 15.08830091 18219,6917.911,95.438,541.536,538.016,0.0
53390.0,STARLINK-4517,PAYLOAD,2022-11-29 16:32:09,15.08829671,0.000255,53.2195,93.1906,46.5541,313.5663,9.4547e-05,1.216e-05,0.0,0 STARLINK-4517,1 53390U 22097C   22333.68900247  .00001216  00000-0  94547-4 0  9992,2 53390  53.2195  93.1906 0002550  46.5541 313.5663 15.08829671 17464,6917.9119999999975,95.438,541.5409999999998,538.013,0.0
53390.0,STARLINK-4517,PAYLOAD,2022-11-30 08:26:01,15.08835769,0.0002507,53.2191,90.217,47.0539,313.0663,-3.8237e-06,-3.49e-06,0.0,0 STARLINK-4517,1 53390U 22097C   22334.35140510 -.00000349  00000-0 -38237-5 0  9999,2 53390  53.2191  90.2170 0002507  47.0539 313.0663 15.08835769 18366,6917.893,95.438,541.493,538.024,0.0
53390.0,STARLINK-4517,PAYLOAD,2022-11-30 14:47:33,15.08838799,0.0002533,53.2195,89.0283,47.4785,312.6421,2.1704e-05,5.7e-07,0.0,0 STARLINK-4517,1 53390U 22097C   22334.61636273  .00000057  00000-0  21704-4 0  9998,2 53390  53.2195  89.0283 0002533  47.4785 312.6421 15.08838799 18405,6917.884,95.438,541.501,537.997,0.0
53390.0,STARLINK-4517,PAYLOAD,2022-12-01 00:19:52,15.08834257,0.000252,53.2187,87.2433,43.1009,317.018,2.5507e-06,-2.48e-06,0.0,0 STARLINK-4517,1 53390U 22097C   22335.01380675 -.00000248  00000-0  25507-5 0  9994,2 53390  53.2187  87.2433 0002520  43.1009 317.0180 15.08834257 17664,6917.898,95.438,541.506,538.02,0.0
53390.0,STARLINK-4517,PAYLOAD,2022-12-01 08:16:48,15.08837309,0.0002473,53.2188,85.7564,42.2462,317.872,1.3568e-05,-7.2e-07,0.0,0 STARLINK-4517,1 53390U 22097C   22335.34500633 -.00000072  00000-0  13568-4 0  9996,2 53390  53.2188  85.7564 0002473  42.2462 317.8720 15.08837309 18517,6917.889,95.438,541.464,538.043,0.0
53390.0,STARLINK-4517,PAYLOAD,2022-12-01 14:38:20,15.0884375,0.0002512,53.2192,84.5675,43.9167,316.2024,5.6913e-05,6.18e-06,0.0,0 STARLINK-4517,1 53390U 22097C   22335.60996095  .00000618  00000-0  56913-4 0  9992,2 53390  53.2192  84.5675 0002512  43.9167 316.2024 15.08843750 17758,6917.869000000002,95.437,541.472,537.996,0.0
53390.0,STARLINK-4517,PAYLOAD,2022-12-02 08:07:35,15.08836788,0.0002481,53.2188,81.2951,43.5374,316.5814,2.1394e-05,5.2e-07,0.0,0 STARLINK-4517,1 53390U 22097C   22336.33860943  .00000052  00000-0  21394-4 0  9992,2 53390  53.2188  81.2951 0002481  43.5374 316.5814 15.08836788 17860,6917.89,95.438,541.472,538.039,0.0
53390.0,STARLINK-4517,PAYLOAD,2022-12-03 12:44:31,15.08855334,0.0002486,53.219,75.9432,50.8912,309.2301,-9.2496e-05,-1.761e-05,0.0,0 STARLINK-4517,1 53390U 22097C   22337.53092513 -.00001761  00000-0 -92496-4 0  9996,2 53390  53.2190  75.9432 0002486  50.8912 309.2301 15.08855334 18040,6917.834,95.437,541.418,537.979,0.0
53390.0,STARLINK-4517,PAYLOAD,2022-12-03 15:55:18,15.08845656,0.0002419,53.2191,75.3491,40.2999,319.8172,6.7951e-05,7.93e-06,0.0,0 STARLINK-4517,1 53390U 22097C   22337.66340616  .00000793  00000-0  67951-4 0  9990,2 53390  53.2191  75.3491 0002419  40.2999 319.8172 15.08845656 18863,6917.863,95.437,541.4019999999998,538.055,0.0
53390.0,STARLINK-4517,PAYLOAD,2022-12-03 23:52:14,15.08840032,0.0002397,53.2195,73.8618,39.5303,320.5864,-2.1333e-05,-6.28e-06,0.0,0 STARLINK-4517,1 53390U 22097C   22337.99461172 -.00000628  00000-0 -21333-4 0  9990,2 53390  53.2195  73.8618 0002397  39.5303 320.5864 15.08840032 18114,6917.88,95.438,541.404,538.087,0.0
53390.0,STARLINK-4517,PAYLOAD,2022-12-04 12:35:18,15.08845436,0.0002323,53.2191,71.4837,37.1264,322.9888,0.00014258,1.982e-05,0.0,0 STARLINK-4517,1 53390U 22097C   22338.52452513  .00001982  00000-0  14258-3 0  9998,2 53390  53.2191  71.4837 0002323  37.1264 322.9888 15.08845436 18997,6917.864000000001,95.437,541.336,538.122,0.0
53390.0,STARLINK-4517,PAYLOAD,2022-12-04 15:46:05,15.08845348,0.0002301,53.2212,70.8899,40.6163,319.5001,8.4456e-05,1.056e-05,0.0,0 STARLINK-4517,1 53390U 22097C   22338.65700651  .00001056  00000-0  84456-4 0  9991,2 53390  53.2212  70.8899 0002301  40.6163 319.5001 15.08845348 18211,6917.864000000001,95.437,541.321,538.137,0.0
53390.0,STARLINK-4517,PAYLOAD,2022-12-05 12:26:05,15.08850946,0.0002523,53.2202,67.024,38.4231,321.694,0.00012857,1.759e-05,0.0,0 STARLINK-4517,1 53390U 22097C   22339.51812152  .00001759  00000-0  12857-3 0  9992,2 53390  53.2202  67.0240 0002523  38.4231 321.6940 15.08850946 19144,6917.847,95.437,541.457,537.967,0.0
53390.0,STARLINK-4517,PAYLOAD,2022-12-05 17:12:15,15.08851671,0.000238,53.2194,66.131,36.1149,324.0004,8.322700000000001e-05,1.037e-05,0.0,0 STARLINK-4517,1 53390U 22097C   22339.71684081  .00001037  00000-0  83227-4 0  9991,2 53390  53.2194  66.1310 0002380  36.1149 324.0004 15.08851671 18374,6917.845,95.437,541.356,538.063,0.0
53390.0,STARLINK-4517,PAYLOAD,2022-12-06 12:16:52,15.08844465,0.0002539,53.2191,62.5638,36.4157,323.7008,7.337799999999999e-06,-1.72e-06,0.0,0 STARLINK-4517,1 53390U 22097C   22340.51172225 -.00000172  00000-0  73378-5 0  9990,2 53390  53.2191  62.5638 0002539  36.4157 323.7008 15.08844465 18498,6917.8669999999975,95.437,541.488,537.975,0.0
53390.0,STARLINK-4517,PAYLOAD,2022-12-06 17:03:03,15.08834261,0.0002376,53.2196,61.6712,32.9692,327.1448,-8.6923e-05,-1.671e-05,0.0,0 STARLINK-4517,1 53390U 22097C   22340.71045312 -.00001671  00000-0 -86923-4 0  9993,2 53390  53.2196  61.6712 0002376  32.9692 327.1448 15.08834261 19322,6917.898,95.438,541.4069999999998,538.119,0.0
53390.0,STARLINK-4517,PAYLOAD,2022-12-07 12:07:40,15.08841487,0.0002432,53.2179,58.1041,32.6912,327.4231,2.3736e-05,8.9e-07,0.0,0 STARLINK-4517,1 53390U 22097C   22341.50532841  .00000089  00000-0  23736-4 0  9992,2 53390  53.2179  58.1041 0002432  32.6912 327.4231 15.08841487 18649,6917.876,95.437,541.423,538.058,0.0
53390.0,STARLINK-4517,PAYLOAD,2022-12-08 05:36:54,15.08843594,0.0002469,53.2164,54.8321,35.8848,324.231,6.9172e-05,8.13e-06,0.0,0 STARLINK-4517,1 53390U 22097C   22342.23396587  .00000813  00000-0  69172-4 0  9997,2 53390  53.2164  54.8321 0002469  35.8848 324.2310 15.08843594 19555,6917.869000000002,95.437,541.442,538.026,0.0
53390.0,STARLINK-4517,PAYLOAD,2022-12-08 10:23:04,15.08841572,0.000238,53.2173,53.9407,27.9916,332.1203,0.00015903,2.244e-05,0.0,0 STARLINK-4517,1 53390U 22097C   22342.43268617  .00002244  00000-0  15903-3 0  9993,2 53390  53.2173  53.9407 0002380  27.9916 332.1203 15.08841572 19586,6917.876,95.437,541.387,538.094,0.0
53390.0,STARLINK-4517,PAYLOAD,2022-12-08 21:30:46,15.08836886,0.0002272,53.2181,51.8605,37.7074,322.4078,0.00018455,2.65e-05,0.0,0 STARLINK-4517,1 53390U 22097C   22342.89637003  .00002650  00000-0  18455-3 0  9998,2 53390  53.2181  51.8605 0002272  37.7074 322.4078 15.08836886 18859,6917.89,95.438,541.327,538.183,0.0
53390.0,STARLINK-4517,PAYLOAD,2022-12-09 05:27:41,15.088398800000002,0.0002308,53.218,50.37300000000001,36.7703,323.3448,0.00014652,2.044e-05,0.0,0 STARLINK-4517,1 53390U 22097C   22343.22756848  .00002044  00000-0  14652-3 0  9997,2 53390  53.2180  50.3730 0002308  36.7703 323.3448 15.08839880 19702,6917.880999999999,95.438,541.342,538.149,0.0
53390.0,STARLINK-4517,PAYLOAD,2022-12-10 11:40:02,15.08838369,0.00025,53.2189,44.7218,41.2615,318.8566,-2.9237e-05,-7.54e-06,0.0,0 STARLINK-4517,1 53390U 22097C   22344.48613617 -.00000754  00000-0 -29237-4 0  9996,2 53390  53.2189  44.7218 0002500  41.2615 318.8566 15.08838369 19099,6917.885,95.438,541.48,538.021,0.0
53390.0,STARLINK-4517,PAYLOAD,2022-12-10 16:26:11,15.08847535,0.0002291,53.2189,43.8303,36.8621,323.2528,-0.00017159,-3.019e-05,0.0,0 STARLINK-4517,1 53390U 22097C   22344.68485244 -.00003019  00000-0 -17159-3 0  9997,2 53390  53.2189  43.8303 0002291  36.8621 323.2528 15.08847535 19923,6917.857,95.437,541.307,538.137,0.0
53390.0,STARLINK-4517,PAYLOAD,2022-12-11 05:09:16,15.08803367,0.0001781,53.2182,41.4509,342.4852,17.6079,0.00065098,0.00010077,0.0,0 STARLINK-4517,1 53390U 22097C   22345.21477422  .00010077  00000-0  65098-3 0  9991,2 53390  53.2182  41.4509 0001781 342.4852  17.6079 15.08803367 19204,6917.9919999999975,95.44,541.089,538.625,0.0
53390.0,STARLINK-4517,PAYLOAD,2022-12-11 13:06:11,15.0884308,0.0002351,53.2178,39.9628,31.5119,328.6014,0.00013979,1.937e-05,0.0,0 STARLINK-4517,1 53390U 22097C   22345.54596936  .00001937  00000-0  13979-3 0  9995,2 53390  53.2178  39.9628 0002351  31.5119 328.6014 15.08843080 19254,6917.871,95.437,541.362,538.11,0.0
53390.0,STARLINK-4517,PAYLOAD,2022-12-11 16:16:57,15.088459599999998,0.00023,53.2178,39.3677,29.5702,330.542,0.0001595,2.252e-05,0.0,0 STARLINK-4517,1 53390U 22097C   22345.67844692  .00002252  00000-0  15950-3 0  9996,2 53390  53.2178  39.3677 0002300  29.5702 330.5420 15.08845960 20075,6917.861999999999,95.437,541.318,538.136,0.0
